O3B MPOWER F1           
1 54755U 22174A   23273.70973432 -.00000024  00000+0  00000+0 0  9999
2 54755   0.0482  17.8160 0004955 186.5956 200.1120  5.00118393 15796
